NOAA 17                 
1 27453U 02032A   26094.91419615  .00000309  00000+0  14788-3 0  9997
2 27453  98.8589  59.8292 0011169 199.2326 160.8434 14.26205225236540
NOAA 18                 
1 28654U 05018A   26094.87015575  .00000091  00000+0  71220-4 0  9993
2 28654  98.8123 175.6063 0014182   3.9935 356.1348 14.13716487 75959
NOAA 19                 
1 33591U 09005A   26094.92679888  .00000088  00000+0  70745-4 0  9995
2 33591  98.9560 165.7358 0012937 234.7245 125.2717 14.13462318884136
SUOMI NPP               
1 37849U 11061A   26094.89363411  .00000130  00000+0  82915-4 0  9998
2 37849  98.7904  36.2924 0002034 143.3714 216.7601 14.19501015748041
NOAA 20 (JPSS-1)        
1 43013U 17073A   26094.90784984  .00000103  00000+0  69971-4 0  9998
2 43013  98.7724  35.0393 0002035 102.3173 257.8231 14.19543187434079
NOAA 21 (JPSS-2)        
1 54234U 22150A   26094.87177809  .00000143  00000+0  88742-4 0  9996
2 54234  98.7586  34.8425 0002641  60.8088 299.3352 14.19559508176141
