[{"OBJECT_NAME":"NOAA 17","OBJECT_ID":"2002-032A","EPOCH":"2026-04-04T21:56:26.547360","MEAN_MOTION":14.26205225,"ECCENTRICITY":0.00111696,"INCLINATION":98.8589,"RA_OF_ASC_NODE":59.8292,"ARG_OF_PERICENTER":199.2326,"MEAN_ANOMALY":160.8434,"EPHEMERIS_TYPE":0,"CLASSIFICATION_TYPE":"U","NORAD_CAT_ID":27453,"ELEMENT_SET_NO":999,"REV_AT_EPOCH":23654,"BSTAR":0.00014788015,"MEAN_MOTION_DOT":3.09e-6,"MEAN_MOTION_DDOT":0},{"OBJECT_NAME":"NOAA 18","OBJECT_ID":"2005-018A","EPOCH":"2026-04-04T20:53:01.456800","MEAN_MOTION":14.13716487,"ECCENTRICITY":0.0014182,"INCLINATION":98.8123,"RA_OF_ASC_NODE":175.6063,"ARG_OF_PERICENTER":3.9935,"MEAN_ANOMALY":356.1348,"EPHEMERIS_TYPE":0,"CLASSIFICATION_TYPE":"U","NORAD_CAT_ID":28654,"ELEMENT_SET_NO":999,"REV_AT_EPOCH":7595,"BSTAR":7.121958e-5,"MEAN_MOTION_DOT":9.1e-7,"MEAN_MOTION_DDOT":0},{"OBJECT_NAME":"NOAA 19","OBJECT_ID":"2009-005A","EPOCH":"2026-04-04T22:14:35.423232","MEAN_MOTION":14.13462318,"ECCENTRICITY":0.00129376,"INCLINATION":98.956,"RA_OF_ASC_NODE":165.7358,"ARG_OF_PERICENTER":234.7245,"MEAN_ANOMALY":125.2717,"EPHEMERIS_TYPE":0,"CLASSIFICATION_TYPE":"U","NORAD_CAT_ID":33591,"ELEMENT_SET_NO":999,"REV_AT_EPOCH":88413,"BSTAR":7.0745029e-5,"MEAN_MOTION_DOT":8.8e-7,"MEAN_MOTION_DDOT":0},{"OBJECT_NAME":"SUOMI NPP","OBJECT_ID":"2011-061A","EPOCH":"2026-04-04T21:26:49.987104","MEAN_MOTION":14.19501015,"ECCENTRICITY":0.00020346,"INCLINATION":98.7904,"RA_OF_ASC_NODE":36.2924,"ARG_OF_PERICENTER":143.3714,"MEAN_ANOMALY":216.7601,"EPHEMERIS_TYPE":0,"CLASSIFICATION_TYPE":"U","NORAD_CAT_ID":37849,"ELEMENT_SET_NO":999,"REV_AT_EPOCH":74804,"BSTAR":8.2914753e-5,"MEAN_MOTION_DOT":1.3e-6,"MEAN_MOTION_DDOT":0},{"OBJECT_NAME":"NOAA 20 (JPSS-1)","OBJECT_ID":"2017-073A","EPOCH":"2026-04-04T21:47:18.226176","MEAN_MOTION":14.19543187,"ECCENTRICITY":0.00020358,"INCLINATION":98.7724,"RA_OF_ASC_NODE":35.0393,"ARG_OF_PERICENTER":102.3173,"MEAN_ANOMALY":257.8231,"EPHEMERIS_TYPE":0,"CLASSIFICATION_TYPE":"U","NORAD_CAT_ID":43013,"ELEMENT_SET_NO":999,"REV_AT_EPOCH":43407,"BSTAR":6.9970996e-5,"MEAN_MOTION_DOT":1.03e-6,"MEAN_MOTION_DDOT":0},{"OBJECT_NAME":"NOAA 21 (JPSS-2)","OBJECT_ID":"2022-150A","EPOCH":"2026-04-04T20:55:21.626976","MEAN_MOTION":14.19559508,"ECCENTRICITY":0.00026411,"INCLINATION":98.7586,"RA_OF_ASC_NODE":34.8425,"ARG_OF_PERICENTER":60.8088,"MEAN_ANOMALY":299.3352,"EPHEMERIS_TYPE":0,"CLASSIFICATION_TYPE":"U","NORAD_CAT_ID":54234,"ELEMENT_SET_NO":999,"REV_AT_EPOCH":17614,"BSTAR":8.8742425e-5,"MEAN_MOTION_DOT":1.43e-6,"MEAN_MOTION_DDOT":0}]
